{"type": "FeatureCollection", "features": [{"type": "Feature", "id": 1, "geometry": {"type": "Polygon", "coordinates": [[[-77.119795, 38.934351], [-77.119726, 38.934247], [-77.119578, 38.934221], [-77.119521, 38.934147], [-77.119404, 38.93417], [-77.119333, 38.934089], [-77.119037, 38.933904], [-77.118931, 38.933757], [-77.118873, 38.933739], [-77.11882, 38.933656], [-77.118713, 38.933581], [-77.118658, 38.933379], [-77.118568, 38.933312], [-77.118528, 38.933182], [-77.118416, 38.933153], [-77.118447, 38.933097], [-77.118428, 38.93304], [-77.118284, 38.933005], [-77.118175, 38.932906], [-77.118176, 38.932823], [-77.118063, 38.932773], [-77.117963, 38.932663], [-77.11796, 38.932609], [-77.117896, 38.932586], [-77.117905, 38.932498], [-77.117817, 38.932484], [-77.117808, 38.932386], [-77.117747, 38.932345], [-77.117746, 38.932295], [-77.11769, 38.93226], [-77.117673, 38.932197], [-77.11759, 38.932172], [-77.117576, 38.932123], [-77.117519, 38.932103], [-77.117548, 38.932015], [-77.11749, 38.931896], [-77.11739, 38.931825], [-77.117392, 38.931612], [-77.117293, 38.931527], [-77.117308, 38.931466], [-77.11717, 38.931262], [-77.117213, 38.931241], [-77.117098, 38.931084], [-77.117032, 38.931067], [-77.116958, 38.930989], [-77.116985, 38.930942], [-77.11689, 38.930864], [-77.116895, 38.930783], [-77.116814, 38.930706], [-77.116866, 38.930664], [-77.11677, 38.930578], [-77.116784, 38.930361], [-77.116691, 38.930077], [-77.11664, 38.929792], [-77.116572, 38.929709], [-77.116504, 38.929461], [-77.116549, 38.929342], [-77.116537, 38.929237], [-77.11645, 38.929084], [-77.116406, 38.928904], [-77.116423, 38.928846], [-77.116342, 38.928796], [-77.11626, 38.928678], [-77.116245, 38.928508], [-77.116154, 38.928403], [-77.116074, 38.928411], [-77.116097, 38.928322], [-77.116008, 38.928164], [-77.115923, 38.928095], [-77.115867, 38.928099], [-77.115861, 38.928029], [-77.115802, 38.92802], [-77.115658, 38.927862], [-77.115563, 38.92782], [-77.115572, 38.927716], [-77.115513, 38.927714], [-77.11543, 38.927643], [-77.115377, 38.927669], [-77.11531, 38.927545], [-77.115186, 38.927412], [-77.114988, 38.927347], [-77.114989, 38.927391], [-77.11494, 38.927382], [-77.114934, 38.927335], [-77.114837, 38.927243], [-77.114857, 38.927217], [-77.114792, 38.927216], [-77.11482, 38.927179], [-77.114807, 38.927107], [-77.114699, 38.92706], [-77.114653, 38.926983], [-77.114558, 38.926942], [-77.114553, 38.926883], [-77.114405, 38.926661], [-77.114331, 38.926612], [-77.114279, 38.926626], [-77.114272, 38.92657], [-77.11416, 38.92643], [-77.114131, 38.926325], [-77.114047, 38.926275], [-77.114015, 38.926136], [-77.113971, 38.92614], [-77.113889, 38.926029], [-77.113776, 38.925985], [-77.113762, 38.925856], [-77.113711, 38.925872], [-77.113629, 38.925749], [-77.113567, 38.925753], [-77.113556, 38.925679], [-77.113415, 38.92549], [-77.113407, 38.925418], [-77.11335, 38.925368], [-77.113259, 38.925364], [-77.113156, 38.925265], [-77.113124, 38.925275], [-77.113089, 38.925217], [-77.113034, 38.9252], [-77.113035, 38.925146], [-77.112953, 38.925066], [-77.112914, 38.925091], [-77.11286, 38.925057], [-77.112834, 38.924966], [-77.112761, 38.924944], [-77.11274, 38.924888], [-77.112801, 38.924884], [-77.112805, 38.924857], [-77.112667, 38.92466], [-77.112447, 38.924505], [-77.112424, 38.924449], [-77.112283, 38.924438], [-77.112178, 38.924287], [-77.112024, 38.924254], [-77.111966, 38.924109], [-77.111831, 38.924086], [-77.111838, 38.924016], [-77.111572, 38.923889], [-77.111568, 38.923858], [-77.111433, 38.923823], [-77.11136, 38.923665], [-77.111294, 38.923634], [-77.111281, 38.923562], [-77.11126, 38.923592], [-77.111182, 38.923493], [-77.110984, 38.923406], [-77.110929, 38.923411], [-77.11088, 38.923291], [-77.110667, 38.923149], [-77.110579, 38.922996], [-77.110418, 38.922939], [-77.110316, 38.922791], [-77.110249, 38.922776], [-77.110136, 38.92269], [-77.11005, 38.922675], [-77.110036, 38.922631], [-77.109966, 38.922597], [-77.109883, 38.922431], [-77.109533, 38.922214], [-77.109441, 38.922178], [-77.109396, 38.922205], [-77.109404, 38.922114], [-77.109223, 38.922009], [-77.109154, 38.921902], [-77.109019, 38.921792], [-77.108884, 38.921827], [-77.108882, 38.921779], [-77.10878, 38.921771], [-77.108789, 38.921674], [-77.108726, 38.921658], [-77.108638, 38.921557], [-77.108546, 38.921591], [-77.108566, 38.921551], [-77.108526, 38.921533], [-77.108456, 38.921364], [-77.10839, 38.921293], [-77.108321, 38.921276], [-77.108314, 38.921235], [-77.108241, 38.921211], [-77.108218, 38.921068], [-77.108034, 38.920896], [-77.107824, 38.920799], [-77.107767, 38.920714], [-77.107714, 38.920725], [-77.107725, 38.920683], [-77.10752, 38.920365], [-77.107294, 38.920221], [-77.107304, 38.920186], [-77.10721, 38.920103], [-77.107166, 38.920111], [-77.107108, 38.920073], [-77.107019, 38.919913], [-77.106848, 38.919959], [-77.106854, 38.919891], [-77.106917, 38.919841], [-77.106904, 38.919783], [-77.106747, 38.919598], [-77.106689, 38.919482], [-77.106616, 38.919489], [-77.106618, 38.919441], [-77.106527, 38.919375], [-77.106493, 38.91928], [-77.106376, 38.919221], [-77.106367, 38.919154], [-77.106302, 38.91913], [-77.106307, 38.919081], [-77.106245, 38.919018], [-77.106264, 38.918946], [-77.106162, 38.918721], [-77.106037, 38.918565], [-77.105982, 38.91856], [-77.105966, 38.918502], [-77.105898, 38.918469], [-77.105845, 38.918305], [-77.105762, 38.918281], [-77.105741, 38.918146], [-77.105765, 38.918084], [-77.105725, 38.918018], [-77.10574, 38.917981], [-77.105687, 38.917962], [-77.105709, 38.917896], [-77.105634, 38.917825], [-77.105606, 38.917617], [-77.105543, 38.917585], [-77.105452, 38.917448], [-77.105376, 38.917444], [-77.105357, 38.917366], [-77.105317, 38.917334], [-77.105179, 38.91732], [-77.105157, 38.917281], [-77.105172, 38.917203], [-77.105115, 38.917169], [-77.105032, 38.91701], [-77.104654, 38.916555], [-77.104254, 38.916142], [-77.104036, 38.915664], [-77.103982, 38.915369], [-77.103806, 38.915094], [-77.103637, 38.914718], [-77.103609, 38.91452], [-77.103512, 38.914221], [-77.103497, 38.913482], [-77.103452, 38.913308], [-77.10302, 38.91271], [-77.102712, 38.912573], [-77.102696, 38.912491], [-77.102596, 38.912387], [-77.102419, 38.912329], [-77.102036, 38.911924], [-77.101791, 38.911772], [-77.101577, 38.911583], [-77.101517, 38.911556], [-77.101454, 38.911588], [-77.101337, 38.911463], [-77.101114, 38.911381], [-77.101093, 38.911336], [-77.100819, 38.911169], [-77.100714, 38.911147], [-77.100713, 38.9111], [-77.100352, 38.910784], [-77.100155, 38.910666], [-77.100125, 38.910566], [-77.099717, 38.91026], [-77.099462, 38.910109], [-77.099191, 38.909875], [-77.099142, 38.909798], [-77.099086, 38.909802], [-77.099022, 38.90976], [-77.098547, 38.909276], [-77.09834, 38.908996], [-77.098015, 38.908742], [-77.097816, 38.908532], [-77.097472, 38.908357], [-77.096591, 38.907606], [-77.096237, 38.90747], [-77.095982, 38.907299], [-77.095014, 38.906881], [-77.094946, 38.906767], [-77.09478, 38.906741], [-77.094497, 38.906544], [-77.093717, 38.90612], [-77.093487, 38.905906], [-77.093462, 38.90583], [-77.09336, 38.905843], [-77.092536, 38.905503], [-77.092317, 38.905372], [-77.091681, 38.905139], [-77.091371, 38.904885], [-77.091203, 38.904875], [-77.091125, 38.904929], [-77.091089, 38.904907], [-77.091033, 38.904943], [-77.091049, 38.904841], [-77.090778, 38.904774], [-77.090672, 38.904621], [-77.090572, 38.904557], [-77.090315, 38.904457], [-77.090157, 38.904345], [-77.090086, 38.904337], [-77.089329, 38.903929], [-77.089047, 38.903832], [-77.088785, 38.903665], [-77.088575, 38.903615], [-77.088521, 38.90355], [-77.088135, 38.903379], [-77.087808, 38.903295], [-77.087654, 38.903349], [-77.087675, 38.903242], [-77.087522, 38.90318], [-77.087264, 38.903167], [-77.087124, 38.903215], [-77.086978, 38.903216], [-77.086957, 38.903182], [-77.086892, 38.903186], [-77.086915, 38.90312], [-77.086824, 38.903043], [-77.086664, 38.90298], [-77.086222, 38.902915], [-77.085527, 38.902715], [-77.085438, 38.902735], [-77.085211, 38.902691], [-77.085103, 38.902607], [-77.084969, 38.902629], [-77.084898, 38.902685], [-77.08488, 38.902641], [-77.084547, 38.902634], [-77.084449, 38.902585], [-77.084302, 38.902575], [-77.084212, 38.902633], [-77.083998, 38.902619], [-77.083901, 38.902565], [-77.083473, 38.902468], [-77.083065, 38.902441], [-77.082833, 38.902354], [-77.082788, 38.902271], [-77.082612, 38.902267], [-77.082585, 38.902346], [-77.082382, 38.902409], [-77.081898, 38.902353], [-77.081806, 38.902435], [-77.081708, 38.902361], [-77.081607, 38.902409], [-77.081487, 38.902324], [-77.081365, 38.902342], [-77.081361, 38.902398], [-77.081287, 38.902424], [-77.081265, 38.902371], [-77.081197, 38.902344], [-77.08014, 38.902305], [-77.079559, 38.902404], [-77.079363, 38.902409], [-77.079238, 38.902468], [-77.079165, 38.902437], [-77.079123, 38.902362], [-77.07895, 38.902312], [-77.078275, 38.902378], [-77.077968, 38.902267], [-77.077638, 38.902263], [-77.077522, 38.90218], [-77.077068, 38.902122], [-77.076748, 38.901983], [-77.076545, 38.90196], [-77.076112, 38.901823], [-77.075918, 38.9018], [-77.075413, 38.901623], [-77.074074, 38.901319], [-77.073368, 38.901125], [-77.072705, 38.901063], [-77.072153, 38.901071], [-77.070587, 38.901193], [-77.070299, 38.900995], [-77.069442, 38.900621], [-77.068947, 38.900483], [-77.068668, 38.900312], [-77.068326, 38.900025], [-77.068172, 38.89994], [-77.068159, 38.899834], [-77.068055, 38.899715], [-77.067771, 38.899574], [-77.067553, 38.8992], [-77.067536, 38.899095], [-77.067625, 38.898916], [-77.067613, 38.898716], [-77.067582, 38.898529], [-77.067467, 38.898205], [-77.067478, 38.898148], [-77.067598, 38.898102], [-77.067576, 38.898056], [-77.067475, 38.898121], [-77.06746, 38.89803], [-77.067363, 38.89788], [-77.067295, 38.897459], [-77.067211, 38.897217], [-77.067229, 38.897168], [-77.066472, 38.89587], [-77.066234, 38.89533], [-77.065885, 38.894798], [-77.065889, 38.894697], [-77.066016, 38.894602], [-77.065975, 38.894528], [-77.065856, 38.894567], [-77.065759, 38.894514], [-77.065217, 38.893695], [-77.065006, 38.893197], [-77.064932, 38.892911], [-77.064857, 38.892817], [-77.064811, 38.892688], [-77.0648, 38.892633], [-77.064843, 38.892525], [-77.064743, 38.892221], [-77.064722, 38.891921], [-77.064462, 38.89115], [-77.064303, 38.891081], [-77.064162, 38.890869], [-77.064006, 38.890772], [-77.064049, 38.890609], [-77.064033, 38.890546], [-77.063897, 38.890353], [-77.063786, 38.890262], [-77.06378, 38.890176], [-77.063823, 38.89011], [-77.064169, 38.889887], [-77.064316, 38.889754], [-77.064418, 38.889581], [-77.064355, 38.889131], [-77.064156, 38.88847], [-77.064066, 38.888303], [-77.063822, 38.88818], [-77.063789, 38.888101], [-77.063806, 38.888053], [-77.063714, 38.887975], [-77.063735, 38.887889], [-77.063783, 38.887847], [-77.06362, 38.887723], [-77.06365, 38.887785], [-77.063607, 38.887848], [-77.063459, 38.887677], [-77.063427, 38.887633], [-77.063465, 38.887605], [-77.063444, 38.88752], [-77.063038, 38.88709], [-77.062846, 38.886761], [-77.062673, 38.886549], [-77.062273, 38.88577], [-77.061589, 38.884878], [-77.061455, 38.884753], [-77.061275, 38.884428], [-77.060978, 38.884041], [-77.060876, 38.883977], [-77.060884, 38.883929], [-77.061, 38.883928], [-77.060913, 38.883901], [-77.06085, 38.883831], [-77.060659, 38.883432], [-77.060538, 38.883271], [-77.059821, 38.881948], [-77.05945, 38.881387], [-77.059275, 38.8812], [-77.059163, 38.88092], [-77.058972, 38.880702], [-77.058683, 38.880486], [-77.057902, 38.880266], [-77.057578, 38.880267], [-77.056282, 38.880406], [-77.055714, 38.880356], [-77.055486, 38.880304], [-77.055287, 38.880218], [-77.055341, 38.880293], [-77.055256, 38.880292], [-77.054888, 38.880198], [-77.054715, 38.88012], [-77.054395, 38.879921], [-77.054143, 38.87972], [-77.053901, 38.879456], [-77.053664, 38.879134], [-77.053696, 38.879047], [-77.053777, 38.878972], [-77.053754, 38.878884], [-77.053691, 38.878834], [-77.05364, 38.878842], [-77.05363, 38.878962], [-77.053595, 38.87901], [-77.053542, 38.879014], [-77.053508, 38.878868], [-77.053364, 38.878641], [-77.053321, 38.878587], [-77.053175, 38.878525], [-77.053224, 38.878452], [-77.052612, 38.87787], [-77.05197, 38.877098], [-77.051768, 38.876927], [-77.051533, 38.876572], [-77.051448, 38.876324], [-77.051422, 38.876115], [-77.051562, 38.875602], [-77.051705, 38.874691], [-77.051687, 38.873913], [-77.051598, 38.873634], [-77.051459, 38.873365], [-77.050797, 38.872345], [-77.050817, 38.872326], [-77.050717, 38.87217], [-77.050418, 38.871825], [-77.050192, 38.871647], [-77.049499, 38.871339], [-77.049182, 38.871294], [-77.048994, 38.871341], [-77.048946, 38.871321], [-77.048779, 38.871402], [-77.04791, 38.871619], [-77.046878, 38.871799], [-77.046529, 38.872012], [-77.046364, 38.872175], [-77.046226, 38.872377], [-77.046498, 38.872904], [-77.046535, 38.873034], [-77.046512, 38.873294], [-77.046376, 38.873646], [-77.046383, 38.873951], [-77.046411, 38.873989], [-77.046537, 38.874017], [-77.047081, 38.874557], [-77.047197, 38.874813], [-77.047204, 38.874936], [-77.04713, 38.875079], [-77.047039, 38.87516], [-77.046823, 38.875309], [-77.046414, 38.875508], [-77.046126, 38.87559], [-77.04584, 38.875592], [-77.045679, 38.875554], [-77.045446, 38.875429], [-77.043453, 38.873988], [-77.042754, 38.873319], [-77.042406, 38.873064], [-77.042226, 38.872787], [-77.041802, 38.872498], [-77.041684, 38.872308], [-77.04078, 38.871542], [-77.040509, 38.871248], [-77.039952, 38.870524], [-77.039781, 38.870204], [-77.039454, 38.86972], [-77.038671, 38.868271], [-77.038498, 38.86782], [-77.038293, 38.867449], [-77.038001, 38.866672], [-77.037892, 38.866223], [-77.037839, 38.865744], [-77.037791, 38.865632], [-77.037737, 38.865116], [-77.037748, 38.864757], [-77.037926, 38.864292], [-77.038112, 38.864107], [-77.038276, 38.864028], [-77.038583, 38.864007], [-77.038907, 38.863928], [-77.039688, 38.863877], [-77.040418, 38.863704], [-77.040935, 38.863658], [-77.040977, 38.863671], [-77.040975, 38.863744], [-77.041266, 38.863743], [-77.041306, 38.863692], [-77.041672, 38.863675], [-77.042138, 38.863768], [-77.042398, 38.863696], [-77.042531, 38.863709], [-77.042674, 38.863582], [-77.042635, 38.863532], [-77.042765, 38.86338], [-77.04266, 38.863315], [-77.042514, 38.86346], [-77.042349, 38.863454], [-77.041707, 38.863235], [-77.040896, 38.862644], [-77.040359, 38.862382], [-77.040155, 38.862454], [-77.03986, 38.862697], [-77.039823, 38.862785], [-77.03981, 38.863193], [-77.039782, 38.863232], [-77.039513, 38.863315], [-77.038344, 38.863383], [-77.038197, 38.863366], [-77.038084, 38.863301], [-77.038005, 38.863208], [-77.037963, 38.862771], [-77.03781, 38.86194], [-77.037734, 38.861699], [-77.037681, 38.861657], [-77.0377, 38.861598], [-77.037588, 38.861272], [-77.037405, 38.86116], [-77.036996, 38.861165], [-77.036795, 38.861112], [-77.036784, 38.861065], [-77.036842, 38.861025], [-77.036842, 38.860968], [-77.036752, 38.860827], [-77.036117, 38.860338], [-77.035731, 38.859986], [-77.035401, 38.85977], [-77.035073, 38.859369], [-77.034994, 38.859052], [-77.03458, 38.858213], [-77.034444, 38.857989], [-77.034164, 38.857674], [-77.034089, 38.85734], [-77.034018, 38.85717], [-77.032845, 38.855034], [-77.032835, 38.854733], [-77.032661, 38.854104], [-77.032658, 38.853879], [-77.032459, 38.852885], [-77.032268, 38.852302], [-77.032283, 38.852091], [-77.032201, 38.85149], [-77.032225, 38.850962], [-77.032204, 38.850702], [-77.03214, 38.85027], [-77.032036, 38.850164], [-77.032199, 38.85009], [-77.032124, 38.850073], [-77.032022, 38.850099], [-77.031992, 38.85007], [-77.032041, 38.849973], [-77.032189, 38.849904], [-77.032241, 38.849771], [-77.03231, 38.848504], [-77.032299, 38.848161], [-77.032367, 38.847923], [-77.032393, 38.847583], [-77.032532, 38.846862], [-77.032781, 38.845891], [-77.032829, 38.845853], [-77.032806, 38.845808], [-77.032827, 38.845656], [-77.033073, 38.844538], [-77.033223, 38.844467], [-77.033161, 38.844409], [-77.033176, 38.844326], [-77.033515, 38.843545], [-77.033911, 38.8428], [-77.033948, 38.842637], [-77.034015, 38.841718], [-77.034051, 38.841638], [-77.034138, 38.841596], [-77.034173, 38.841261], [-77.034281, 38.841143], [-77.034195, 38.840945], [-77.034236, 38.840888], [-77.034406, 38.840887], [-77.034545, 38.840806], [-77.034553, 38.840212], [-77.034595, 38.840109], [-77.03467, 38.840042], [-77.035008, 38.839956], [-77.035504, 38.839761], [-77.0357, 38.839755], [-77.036176, 38.839568], [-77.036618, 38.839579], [-77.036641, 38.839525], [-77.036806, 38.839413], [-77.037402, 38.839381], [-77.03746, 38.839349], [-77.038113, 38.839282], [-77.038198, 38.839305], [-77.038938, 38.839256], [-77.039493, 38.839296], [-77.040053, 38.839285], [-77.040364, 38.839326], [-77.040718, 38.839481], [-77.040847, 38.839494], [-77.040934, 38.839581], [-77.041055, 38.839622], [-77.041215, 38.839551], [-77.041789, 38.839529], [-77.042739, 38.839695], [-77.043023, 38.839793], [-77.043254, 38.840145], [-77.043252, 38.840265], [-77.043363, 38.840467], [-77.043361, 38.840558], [-77.043475, 38.840489], [-77.043639, 38.840323], [-77.043862, 38.840205], [-77.044014, 38.840233], [-77.044326, 38.840178], [-77.044685, 38.840223], [-77.044779, 38.840277], [-77.045073, 38.840613], [-77.045578, 38.840962], [-77.045571, 38.840984], [-77.046062, 38.841153], [-77.046068, 38.841181], [-77.046083, 38.841158], [-77.046585, 38.84128], [-77.047014, 38.841318], [-77.047657, 38.84131], [-77.047655, 38.841289], [-77.047901, 38.841267], [-77.047478, 38.840647], [-77.046823, 38.840626], [-77.046391, 38.840501], [-77.046097, 38.840369], [-77.04589, 38.840116], [-77.045848, 38.840014], [-77.046023, 38.839981], [-77.046316, 38.840114], [-77.04638, 38.840114], [-77.046504, 38.839931], [-77.046421, 38.839641], [-77.046193, 38.839264], [-77.046029, 38.839103], [-77.045899, 38.83892], [-77.045645, 38.838778], [-77.04542, 38.838602], [-77.045368, 38.838509], [-77.045383, 38.838349], [-77.045462, 38.838156], [-77.045465, 38.838008], [-77.045367, 38.837633], [-77.045387, 38.837231], [-77.045336, 38.837125], [-77.04522, 38.836504], [-77.045146, 38.836343], [-77.045143, 38.83622], [-77.045054, 38.836092], [-77.045213, 38.835941], [-77.045594, 38.835889], [-77.045595, 38.835846], [-77.045181, 38.835901], [-77.045054, 38.835757], [-77.044995, 38.835308], [-77.044914, 38.835143], [-77.044892, 38.834944], [-77.044797, 38.834729], [-77.044767, 38.834567], [-77.044463, 38.83385], [-77.044305, 38.833592], [-77.044241, 38.83354], [-77.044281, 38.833447], [-77.0444, 38.833412], [-77.044451, 38.83336], [-77.044493, 38.83316], [-77.044459, 38.833092], [-77.044413, 38.833118], [-77.044403, 38.833281], [-77.044366, 38.833354], [-77.044141, 38.833475], [-77.044059, 38.833479], [-77.044001, 38.83339], [-77.04383, 38.833367], [-77.043816, 38.833306], [-77.0439, 38.833182], [-77.043899, 38.833138], [-77.043834, 38.832977], [-77.043711, 38.832878], [-77.043449, 38.831774], [-77.043395, 38.831619], [-77.043287, 38.831458], [-77.043013, 38.831244], [-77.042694, 38.831115], [-77.04249, 38.831213], [-77.042113, 38.831324], [-77.041938, 38.831493], [-77.04194, 38.831631], [-77.042068, 38.83188], [-77.042124, 38.832096], [-77.042246, 38.832356], [-77.042382, 38.832838], [-77.042542, 38.833102], [-77.04258, 38.833316], [-77.042517, 38.83349], [-77.042341, 38.83364], [-77.042094, 38.833716], [-77.04188, 38.833707], [-77.041709, 38.833638], [-77.040746, 38.833055], [-77.040558, 38.832911], [-77.040407, 38.832861], [-77.039759, 38.832498], [-77.039137, 38.832067], [-77.038968, 38.831841], [-77.038729, 38.831621], [-77.038473, 38.831316], [-77.03835, 38.831056], [-77.037989, 38.830592], [-77.037848, 38.830164], [-77.037791, 38.829571], [-77.037859, 38.829135], [-77.038164, 38.828008], [-77.038204, 38.82768], [-77.038298, 38.827483], [-77.038401, 38.827102], [-77.038383, 38.826993], [-77.038446, 38.826822], [-77.038472, 38.826476], [-77.038699, 38.82564], [-77.038682, 38.825322], [-77.038704, 38.825064], [-77.038812, 38.824649], [-77.039031, 38.824291], [-77.04012, 38.823632], [-77.041053, 38.823354], [-77.04072, 38.822106], [-77.039906, 38.821834], [-77.039578, 38.82148], [-77.039968, 38.820654], [-77.039744, 38.820021], [-77.039027, 38.819484], [-77.03885, 38.819253], [-77.038858, 38.819121], [-77.038903, 38.819044], [-77.039019, 38.818912], [-77.039098, 38.818932], [-77.039125, 38.81888], [-77.039051, 38.818858], [-77.039074, 38.818808], [-77.038962, 38.818776], [-77.038982, 38.818707], [-77.038865, 38.818313], [-77.038815, 38.817822], [-77.03854, 38.817075], [-77.038538, 38.816849], [-77.038445, 38.816258], [-77.038129, 38.815596], [-77.03614, 38.814812], [-77.036131, 38.814281], [-77.037483, 38.809406], [-77.038785, 38.802783], [-77.039185, 38.800591], [-77.039023, 38.791644], [-76.90915, 38.892931], [-77.040966, 38.995968], [-77.119795, 38.934351]]]}, "properties": {"CITY_NAME": "Washington", "STATE_CITY": 1150000, "CAPITAL": "Y", "WEB_URL": "http://www.dc.gov", "AREAKM": 177.47, "AREAMILES": 68.52, "GIS_ID": "DCBndyPly_1", "GLOBALID": "{ED39E1E0-B1E5-4B42-BE73-1C737B39E5CA}", "CREATED": null, "EDITED": null, "SHAPE.AREA": 0, "SHAPE.LEN": 0, "OBJECTID": 1}}]}