{"type": "FeatureCollection", "features": [{"type": "Feature", "id": 1, "geometry": {"type": "Point", "coordinates": [-77.040877, 38.991765]}, "properties": {"NAME": "North Portal Estates", "LABEL_NAME": "North Portal Estates", "WEB_URL": "http://NeighborhoodAction.dc.gov", "DATELASTMODIFIED": 1049947200000, "GIS_ID": "NbhNamesPt_45", "GLOBALID": "{78153D76-060B-45BF-B4A9-4E1E1D47BA82}", "CREATED": null, "OBJECTID": 1, "EDITED": null}}, {"type": "Feature", "id": 2, "geometry": {"type": "Point", "coordinates": [-77.041094, 38.98679]}, "properties": {"NAME": "Colonial Village", "LABEL_NAME": "Colonial Village", "WEB_URL": "http://NeighborhoodAction.dc.gov", "DATELASTMODIFIED": 1049947200000, "GIS_ID": "NbhNamesPt_46", "GLOBALID": "{A443564E-EAD4-4E46-9EAE-DD6342644007}", "CREATED": null, "OBJECTID": 2, "EDITED": null}}, {"type": "Feature", "id": 3, "geometry": {"type": "Point", "coordinates": [-77.032126, 38.98298]}, "properties": {"NAME": "Shepherd Park", "LABEL_NAME": "Shepherd Park", "WEB_URL": "http://NeighborhoodAction.dc.gov", "DATELASTMODIFIED": 1049947200000, "GIS_ID": "NbhNamesPt_47", "GLOBALID": "{429C9BC9-2D92-4113-9EEA-80DCBA41A371}", "CREATED": null, "OBJECTID": 3, "EDITED": null}}, {"type": "Feature", "id": 4, "geometry": {"type": "Point", "coordinates": [-77.055934, 38.980883]}, "properties": {"NAME": "Hawthorne", "LABEL_NAME": "Hawthorne", "WEB_URL": "http://NeighborhoodAction.dc.gov", "DATELASTMODIFIED": 1049947200000, "GIS_ID": "NbhNamesPt_54", "GLOBALID": "{D3467B16-10E8-4828-AA3E-E80005179D9F}", "CREATED": null, "OBJECTID": 4, "EDITED": null}}, {"type": "Feature", "id": 5, "geometry": {"type": "Point", "coordinates": [-77.021558, 38.976462]}, "properties": {"NAME": "Takoma", "LABEL_NAME": "Takoma", "WEB_URL": "http://NeighborhoodAction.dc.gov", "DATELASTMODIFIED": 1049947200000, "GIS_ID": "NbhNamesPt_48", "GLOBALID": "{2124089B-A109-4BE2-B070-35537445CE8F}", "CREATED": null, "OBJECTID": 5, "EDITED": null}}, {"type": "Feature", "id": 6, "geometry": {"type": "Point", "coordinates": [-77.060174, 38.975433]}, "properties": {"NAME": "Barnaby Woods", "LABEL_NAME": "Barnaby Woods", "WEB_URL": "http://NeighborhoodAction.dc.gov", "DATELASTMODIFIED": 1049947200000, "GIS_ID": "NbhNamesPt_55", "GLOBALID": "{50F35BDB-AE92-421E-A61E-AC5E22413BFE}", "CREATED": null, "OBJECTID": 6, "EDITED": null}}, {"type": "Feature", "id": 7, "geometry": {"type": "Point", "coordinates": [-77.026874, 38.966379]}, "properties": {"NAME": "Brightwood", "LABEL_NAME": "Brightwood", "WEB_URL": "http://NeighborhoodAction.dc.gov", "DATELASTMODIFIED": 1049947200000, "GIS_ID": "NbhNamesPt_53", "GLOBALID": "{88482D56-487F-42DA-8457-C8B69C1E96A9}", "CREATED": null, "OBJECTID": 7, "EDITED": null}}, {"type": "Feature", "id": 8, "geometry": {"type": "Point", "coordinates": [-77.006445, 38.96507]}, "properties": {"NAME": "Lamond Riggs", "LABEL_NAME": "Lamond Riggs", "WEB_URL": "http://NeighborhoodAction.dc.gov", "DATELASTMODIFIED": 1049947200000, "GIS_ID": "NbhNamesPt_49", "GLOBALID": "{1AAFB8F7-6006-49B5-BE2A-303FA8C80CCB}", "CREATED": null, "OBJECTID": 8, "EDITED": null}}, {"type": "Feature", "id": 9, "geometry": {"type": "Point", "coordinates": [-77.066478, 38.963146]}, "properties": {"NAME": "Chevy Chase", "LABEL_NAME": "Chevy Chase", "WEB_URL": "http://NeighborhoodAction.dc.gov", "DATELASTMODIFIED": 1049947200000, "GIS_ID": "NbhNamesPt_91", "GLOBALID": "{3184E9D0-F6AA-47FA-9C70-7AB427E0F4F1}", "CREATED": null, "OBJECTID": 9, "EDITED": null}}, {"type": "Feature", "id": 10, "geometry": {"type": "Point", "coordinates": [-77.012657, 38.962062]}, "properties": {"NAME": "Manor Park", "LABEL_NAME": "Manor Park", "WEB_URL": "http://NeighborhoodAction.dc.gov", "DATELASTMODIFIED": 1049947200000, "GIS_ID": "NbhNamesPt_52", "GLOBALID": "{8AF019C9-6927-40C1-8120-F8AF0122A297}", "CREATED": null, "OBJECTID": 10, "EDITED": null}}, {"type": "Feature", "id": 11, "geometry": {"type": "Point", "coordinates": [-77.083854, 38.956907]}, "properties": {"NAME": "Friendship Heights", "LABEL_NAME": "Friendship Heights", "WEB_URL": "http://NeighborhoodAction.dc.gov", "DATELASTMODIFIED": 1049947200000, "GIS_ID": "NbhNamesPt_92", "GLOBALID": "{C6564A57-3BA7-485B-A124-39A8ECEE4B1B}", "CREATED": null, "OBJECTID": 11, "EDITED": null}}, {"type": "Feature", "id": 12, "geometry": {"type": "Point", "coordinates": [-76.996591, 38.95607]}, "properties": {"NAME": "Queens Chapel", "LABEL_NAME": "Queens Chapel", "WEB_URL": "http://NeighborhoodAction.dc.gov", "DATELASTMODIFIED": 1049947200000, "GIS_ID": "NbhNamesPt_56", "GLOBALID": "{238E8413-B681-4CBC-BC76-B5C5D6A822A7}", "CREATED": null, "OBJECTID": 12, "EDITED": null}}, {"type": "Feature", "id": 13, "geometry": {"type": "Point", "coordinates": [-77.024871, 38.955748]}, "properties": {"NAME": "Brightwood Park", "LABEL_NAME": "Brightwood Park", "WEB_URL": "http://NeighborhoodAction.dc.gov", "DATELASTMODIFIED": 1049947200000, "GIS_ID": "NbhNamesPt_51", "GLOBALID": "{0E83A9F1-D0EC-4F4A-AEBE-4155DA199B2C}", "CREATED": null, "OBJECTID": 13, "EDITED": null}}, {"type": "Feature", "id": 14, "geometry": {"type": "Point", "coordinates": [-77.033559, 38.950315]}, "properties": {"NAME": "16th Street Heights", "LABEL_NAME": "16th Street Heights", "WEB_URL": "http://NeighborhoodAction.dc.gov", "DATELASTMODIFIED": 1049947200000, "GIS_ID": "NbhNamesPt_66", "GLOBALID": "{EBBBAB81-84BD-4290-BC06-8EB73EBBDF97}", "CREATED": null, "OBJECTID": 14, "EDITED": null}}, {"type": "Feature", "id": 15, "geometry": {"type": "Point", "coordinates": [-77.008128, 38.94943]}, "properties": {"NAME": "Fort Totten", "LABEL_NAME": "Fort Totten", "WEB_URL": "http://NeighborhoodAction.dc.gov", "DATELASTMODIFIED": 1049947200000, "GIS_ID": "NbhNamesPt_26", "GLOBALID": "{A1E1F9B1-9690-4101-BE22-4D514C00EBC3}", "CREATED": null, "OBJECTID": 15, "EDITED": null}}, {"type": "Feature", "id": 16, "geometry": {"type": "Point", "coordinates": [-77.071774, 38.947879]}, "properties": {"NAME": "North Cleveland Park", "LABEL_NAME": "North Cleveland Park", "WEB_URL": "http://NeighborhoodAction.dc.gov", "DATELASTMODIFIED": 1049947200000, "GIS_ID": "NbhNamesPt_93", "GLOBALID": "{E051A965-AF37-40B7-8C0F-7FB16F6692A5}", "CREATED": null, "OBJECTID": 16, "EDITED": null}}, {"type": "Feature", "id": 17, "geometry": {"type": "Point", "coordinates": [-77.09025, 38.947612]}, "properties": {"NAME": "American University Park", "LABEL_NAME": "American University Park", "WEB_URL": "http://NeighborhoodAction.dc.gov", "DATELASTMODIFIED": 1049947200000, "GIS_ID": "NbhNamesPt_95", "GLOBALID": "{86937E8B-91D8-41B8-BF7E-11AA070939B1}", "CREATED": null, "OBJECTID": 17, "EDITED": null}}, {"type": "Feature", "id": 18, "geometry": {"type": "Point", "coordinates": [-77.080163, 38.947127]}, "properties": {"NAME": "Tenleytown", "LABEL_NAME": "Tenleytown", "WEB_URL": "http://NeighborhoodAction.dc.gov", "DATELASTMODIFIED": 1049947200000, "GIS_ID": "NbhNamesPt_94", "GLOBALID": "{185F9C76-BD9A-484B-8A15-A30F7CD6E8DB}", "CREATED": null, "OBJECTID": 18, "EDITED": null}}, {"type": "Feature", "id": 19, "geometry": {"type": "Point", "coordinates": [-76.983772, 38.946934]}, "properties": {"NAME": "Michigan Park", "LABEL_NAME": "Michigan Park", "WEB_URL": "http://NeighborhoodAction.dc.gov", "DATELASTMODIFIED": 1049947200000, "GIS_ID": "NbhNamesPt_57", "GLOBALID": "{3B1A7351-2CF3-4A22-BAC6-19A9C0B16FD9}", "CREATED": null, "OBJECTID": 19, "EDITED": null}}, {"type": "Feature", "id": 20, "geometry": {"type": "Point", "coordinates": [-77.058462, 38.946893]}, "properties": {"NAME": "Forest Hills", "LABEL_NAME": "Forest Hills", "WEB_URL": "http://NeighborhoodAction.dc.gov", "DATELASTMODIFIED": 1049947200000, "GIS_ID": "NbhNamesPt_23", "GLOBALID": "{06B2370D-1E0C-4545-A22E-01F48A5C6C01}", "CREATED": null, "OBJECTID": 20, "EDITED": null}}, {"type": "Feature", "id": 21, "geometry": {"type": "Point", "coordinates": [-76.993666, 38.945644]}, "properties": {"NAME": "North Michigan Park", "LABEL_NAME": "North Michigan Park", "WEB_URL": "http://NeighborhoodAction.dc.gov", "DATELASTMODIFIED": 1049947200000, "GIS_ID": "NbhNamesPt_58", "GLOBALID": "{6A7C5DD4-BEDE-42F9-A7F6-216382A3AB2E}", "CREATED": null, "OBJECTID": 21, "EDITED": null}}, {"type": "Feature", "id": 22, "geometry": {"type": "Point", "coordinates": [-77.066106, 38.943391]}, "properties": {"NAME": "Van Ness", "LABEL_NAME": "Van Ness", "WEB_URL": "http://NeighborhoodAction.dc.gov", "DATELASTMODIFIED": 1049947200000, "GIS_ID": "NbhNamesPt_22", "GLOBALID": "{D81F832D-F637-48BD-8D0A-E2984643A657}", "CREATED": null, "OBJECTID": 22, "EDITED": null}}, {"type": "Feature", "id": 23, "geometry": {"type": "Point", "coordinates": [-77.041097, 38.943327]}, "properties": {"NAME": "Crestwood", "LABEL_NAME": "Crestwood", "WEB_URL": "http://NeighborhoodAction.dc.gov", "DATELASTMODIFIED": 1049947200000, "GIS_ID": "NbhNamesPt_131", "GLOBALID": "{06A3F48C-4745-48D4-AA41-39CCFA471ED1}", "CREATED": null, "OBJECTID": 23, "EDITED": null}}, {"type": "Feature", "id": 24, "geometry": {"type": "Point", "coordinates": [-77.024017, 38.943039]}, "properties": {"NAME": "Petworth", "LABEL_NAME": "Petworth", "WEB_URL": "http://NeighborhoodAction.dc.gov", "DATELASTMODIFIED": 1049947200000, "GIS_ID": "NbhNamesPt_50", "GLOBALID": "{72A456E8-CCB0-47B1-8956-1A8A76181E30}", "CREATED": null, "OBJECTID": 24, "EDITED": null}}, {"type": "Feature", "id": 25, "geometry": {"type": "Point", "coordinates": [-77.004804, 38.941079]}, "properties": {"NAME": "Pleasant Hill", "LABEL_NAME": "Pleasant Hill", "WEB_URL": "http://NeighborhoodAction.dc.gov", "DATELASTMODIFIED": 1049947200000, "GIS_ID": "NbhNamesPt_27", "GLOBALID": "{32C9B2A1-8F37-4F02-B8EB-E5057B39B620}", "CREATED": null, "OBJECTID": 25, "EDITED": null}}, {"type": "Feature", "id": 26, "geometry": {"type": "Point", "coordinates": [-77.096724, 38.939311]}, "properties": {"NAME": "Spring Valley", "LABEL_NAME": "Spring Valley", "WEB_URL": "http://NeighborhoodAction.dc.gov", "DATELASTMODIFIED": 1049947200000, "GIS_ID": "NbhNamesPt_96", "GLOBALID": "{41A4213E-44A4-41EC-8FDF-FE6CA2754A8A}", "CREATED": null, "OBJECTID": 26, "EDITED": null}}, {"type": "Feature", "id": 27, "geometry": {"type": "Point", "coordinates": [-76.995761, 38.938249]}, "properties": {"NAME": "University Heights", "LABEL_NAME": "University Heights", "WEB_URL": "http://NeighborhoodAction.dc.gov", "DATELASTMODIFIED": 1049947200000, "GIS_ID": "NbhNamesPt_60", "GLOBALID": "{24133EF8-3D87-4E27-A80A-6D0114A53CFE}", "CREATED": null, "OBJECTID": 27, "EDITED": null}}, {"type": "Feature", "id": 28, "geometry": {"type": "Point", "coordinates": [-77.075296, 38.936151]}, "properties": {"NAME": "McLean Gardens", "LABEL_NAME": "McLean Gardens", "WEB_URL": "http://NeighborhoodAction.dc.gov", "DATELASTMODIFIED": 1049947200000, "GIS_ID": "NbhNamesPt_98", "GLOBALID": "{AA6F1429-8EF9-43C7-B36E-632FF84AA166}", "CREATED": null, "OBJECTID": 28, "EDITED": null}}, {"type": "Feature", "id": 29, "geometry": {"type": "Point", "coordinates": [-77.064402, 38.936098]}, "properties": {"NAME": "Cleveland Park", "LABEL_NAME": "Cleveland Park", "WEB_URL": "http://NeighborhoodAction.dc.gov", "DATELASTMODIFIED": 1049947200000, "GIS_ID": "NbhNamesPt_99", "GLOBALID": "{92E6EFB6-CA54-4B0C-823D-C3EAA6A9D9CE}", "CREATED": null, "OBJECTID": 29, "EDITED": null}}, {"type": "Feature", "id": 30, "geometry": {"type": "Point", "coordinates": [-77.021444, 38.934604]}, "properties": {"NAME": "Park View", "LABEL_NAME": "Park View", "WEB_URL": "http://NeighborhoodAction.dc.gov", "DATELASTMODIFIED": 1049947200000, "GIS_ID": "NbhNamesPt_110", "GLOBALID": "{51F8E2BC-2089-4B1C-8709-C332AF0868D4}", "CREATED": null, "OBJECTID": 30, "EDITED": null}}, {"type": "Feature", "id": 31, "geometry": {"type": "Point", "coordinates": [-77.07986, 38.934272]}, "properties": {"NAME": "Cathedral Heights", "LABEL_NAME": "Cathedral Heights", "WEB_URL": "http://NeighborhoodAction.dc.gov", "DATELASTMODIFIED": 1049947200000, "GIS_ID": "NbhNamesPt_97", "GLOBALID": "{0D1185CC-2B29-4705-A3B1-7A20F4D7B834}", "CREATED": null, "OBJECTID": 31, "EDITED": null}}, {"type": "Feature", "id": 32, "geometry": {"type": "Point", "coordinates": [-76.96864, 38.934021]}, "properties": {"NAME": "Woodridge", "LABEL_NAME": "Woodridge", "WEB_URL": "http://NeighborhoodAction.dc.gov", "DATELASTMODIFIED": 1049947200000, "GIS_ID": "NbhNamesPt_59", "GLOBALID": "{F504487F-EC5A-4097-B579-91DF5C5ADC13}", "CREATED": null, "OBJECTID": 32, "EDITED": null}}, {"type": "Feature", "id": 33, "geometry": {"type": "Point", "coordinates": [-77.040656, 38.931741]}, "properties": {"NAME": "Mount Pleasant", "LABEL_NAME": "Mount Pleasant", "WEB_URL": "http://NeighborhoodAction.dc.gov", "DATELASTMODIFIED": 1049947200000, "GIS_ID": "NbhNamesPt_109", "GLOBALID": "{BD6F124E-EF3A-4885-8222-AA232ADD82CF}", "CREATED": null, "OBJECTID": 33, "EDITED": null}}, {"type": "Feature", "id": 34, "geometry": {"type": "Point", "coordinates": [-76.984414, 38.931404]}, "properties": {"NAME": "Brookland", "LABEL_NAME": "Brookland", "WEB_URL": "http://NeighborhoodAction.dc.gov", "DATELASTMODIFIED": 1049947200000, "GIS_ID": "NbhNamesPt_61", "GLOBALID": "{E92E5911-17F1-47F0-9A5D-64704746CBD3}", "CREATED": null, "OBJECTID": 34, "EDITED": null}}, {"type": "Feature", "id": 35, "geometry": {"type": "Point", "coordinates": [-77.088325, 38.929981]}, "properties": {"NAME": "Wesley Heights", "LABEL_NAME": "Wesley Heights", "WEB_URL": "http://NeighborhoodAction.dc.gov", "DATELASTMODIFIED": 1049947200000, "GIS_ID": "NbhNamesPt_102", "GLOBALID": "{855013DC-188F-4AB0-A6B6-CB4E1BB74E00}", "CREATED": null, "OBJECTID": 35, "EDITED": null}}, {"type": "Feature", "id": 36, "geometry": {"type": "Point", "coordinates": [-77.10352, 38.929808]}, "properties": {"NAME": "Palisades", "LABEL_NAME": "Palisades", "WEB_URL": "http://NeighborhoodAction.dc.gov", "DATELASTMODIFIED": 1049947200000, "GIS_ID": "NbhNamesPt_104", "GLOBALID": "{22B4F666-6E30-4401-8A9A-D5EB3F013FA1}", "CREATED": null, "OBJECTID": 36, "EDITED": null}}, {"type": "Feature", "id": 37, "geometry": {"type": "Point", "coordinates": [-77.023101, 38.929473]}, "properties": {"NAME": "Pleasant Plains", "LABEL_NAME": "Pleasant Plains", "WEB_URL": "http://NeighborhoodAction.dc.gov", "DATELASTMODIFIED": 1049947200000, "GIS_ID": "NbhNamesPt_36", "GLOBALID": "{70DEA6B5-9E2C-4F96-929D-9AC3125A10B8}", "CREATED": null, "OBJECTID": 37, "EDITED": null}}, {"type": "Feature", "id": 38, "geometry": {"type": "Point", "coordinates": [-77.030586, 38.928008]}, "properties": {"NAME": "Columbia Heights", "LABEL_NAME": "Columbia Heights", "WEB_URL": "http://NeighborhoodAction.dc.gov", "DATELASTMODIFIED": 1049947200000, "GIS_ID": "NbhNamesPt_19", "GLOBALID": "{D3825EE0-9BF6-4DC2-982F-55407C502A44}", "CREATED": null, "OBJECTID": 38, "EDITED": null}}, {"type": "Feature", "id": 39, "geometry": {"type": "Point", "coordinates": [-77.057483, 38.927265]}, "properties": {"NAME": "Woodley Park", "LABEL_NAME": "Woodley Park", "WEB_URL": "http://NeighborhoodAction.dc.gov", "DATELASTMODIFIED": 1049947200000, "GIS_ID": "NbhNamesPt_100", "GLOBALID": "{B467757B-C080-4AD6-BB00-6A5A8EE21601}", "CREATED": null, "OBJECTID": 39, "EDITED": null}}, {"type": "Feature", "id": 40, "geometry": {"type": "Point", "coordinates": [-77.007767, 38.925776]}, "properties": {"NAME": "Stronghold", "LABEL_NAME": "Stronghold", "WEB_URL": "http://NeighborhoodAction.dc.gov", "DATELASTMODIFIED": 1049947200000, "GIS_ID": "NbhNamesPt_41", "GLOBALID": "{9B502ECF-CB84-4FF1-B4E8-8FDE89D6AD65}", "CREATED": null, "OBJECTID": 40, "EDITED": null}}, {"type": "Feature", "id": 41, "geometry": {"type": "Point", "coordinates": [-77.070075, 38.925399]}, "properties": {"NAME": "Mass. Ave. Heights", "LABEL_NAME": "Mass. Ave. Heights", "WEB_URL": "http://NeighborhoodAction.dc.gov", "DATELASTMODIFIED": 1049947200000, "GIS_ID": "NbhNamesPt_34", "GLOBALID": "{AAADBBED-3125-430C-9DDF-57F63CF1262E}", "CREATED": null, "OBJECTID": 41, "EDITED": null}}, {"type": "Feature", "id": 42, "geometry": {"type": "Point", "coordinates": [-77.042694, 38.925249]}, "properties": {"NAME": "Lanier Heights", "LABEL_NAME": "Lanier Heights", "WEB_URL": "http://NeighborhoodAction.dc.gov", "DATELASTMODIFIED": 1049947200000, "GIS_ID": "NbhNamesPt_108", "GLOBALID": "{C1D86442-0D3C-4DBF-A9C5-844F54434933}", "CREATED": null, "OBJECTID": 42, "EDITED": null}}, {"type": "Feature", "id": 43, "geometry": {"type": "Point", "coordinates": [-77.000739, 38.925199]}, "properties": {"NAME": "Edgewood", "LABEL_NAME": "Edgewood", "WEB_URL": "http://NeighborhoodAction.dc.gov", "DATELASTMODIFIED": 1049947200000, "GIS_ID": "NbhNamesPt_62", "GLOBALID": "{88B51C75-04F7-40F3-83DB-19AA98FD3B3A}", "CREATED": null, "OBJECTID": 43, "EDITED": null}}, {"type": "Feature", "id": 44, "geometry": {"type": "Point", "coordinates": [-76.974689, 38.924017]}, "properties": {"NAME": "Langdon", "LABEL_NAME": "Langdon", "WEB_URL": "http://NeighborhoodAction.dc.gov", "DATELASTMODIFIED": 1049947200000, "GIS_ID": "NbhNamesPt_69", "GLOBALID": "{9E92BFFA-F9EB-4AEC-B01D-B16FD8E54A2A}", "CREATED": null, "OBJECTID": 44, "EDITED": null}}, {"type": "Feature", "id": 45, "geometry": {"type": "Point", "coordinates": [-76.965043, 38.923985]}, "properties": {"NAME": "South Central", "LABEL_NAME": "South Central", "WEB_URL": "http://NeighborhoodAction.dc.gov", "DATELASTMODIFIED": 1049947200000, "GIS_ID": "NbhNamesPt_42", "GLOBALID": "{CFD30BCD-5250-471F-B7CE-6C8F80491467}", "CREATED": null, "OBJECTID": 45, "EDITED": null}}, {"type": "Feature", "id": 46, "geometry": {"type": "Point", "coordinates": [-76.954749, 38.92361]}, "properties": {"NAME": "Fort Lincoln", "LABEL_NAME": "Fort Lincoln", "WEB_URL": "http://NeighborhoodAction.dc.gov", "DATELASTMODIFIED": 1049947200000, "GIS_ID": "NbhNamesPt_67", "GLOBALID": "{FAF83C95-5377-4D2D-971A-654F996A02A1}", "CREATED": null, "OBJECTID": 46, "EDITED": null}}, {"type": "Feature", "id": 47, "geometry": {"type": "Point", "coordinates": [-77.060753, 38.92285]}, "properties": {"NAME": "Woodland-Normanstone", "LABEL_NAME": "Woodland-Normanstone", "WEB_URL": "http://NeighborhoodAction.dc.gov", "DATELASTMODIFIED": 1049947200000, "GIS_ID": "NbhNamesPt_33", "GLOBALID": "{46542D74-09DC-437A-8D20-17DD6A36B414}", "CREATED": null, "OBJECTID": 47, "EDITED": null}}, {"type": "Feature", "id": 48, "geometry": {"type": "Point", "coordinates": [-77.01961, 38.922355]}, "properties": {"NAME": "Howard University", "LABEL_NAME": "Howard University", "WEB_URL": "http://NeighborhoodAction.dc.gov", "DATELASTMODIFIED": 1049947200000, "GIS_ID": "NbhNamesPt_112", "GLOBALID": "{E0F955AE-2D73-46F6-A824-6A4681AA10A3}", "CREATED": null, "OBJECTID": 48, "EDITED": null}}, {"type": "Feature", "id": 49, "geometry": {"type": "Point", "coordinates": [-77.075738, 38.921531]}, "properties": {"NAME": "Glover Park", "LABEL_NAME": "Glover Park", "WEB_URL": "http://NeighborhoodAction.dc.gov", "DATELASTMODIFIED": 1049947200000, "GIS_ID": "NbhNamesPt_101", "GLOBALID": "{0BD0575B-58E9-4BB6-A214-CE1D30F1DC5A}", "CREATED": null, "OBJECTID": 49, "EDITED": null}}, {"type": "Feature", "id": 50, "geometry": {"type": "Point", "coordinates": [-77.092767, 38.920486]}, "properties": {"NAME": "Foxhall Crescents", "LABEL_NAME": "Foxhall Crescents", "WEB_URL": "http://NeighborhoodAction.dc.gov", "DATELASTMODIFIED": 1049947200000, "GIS_ID": "NbhNamesPt_103", "GLOBALID": "{D6D96836-1EB9-4807-A802-12DB8B88135F}", "CREATED": null, "OBJECTID": 50, "EDITED": null}}, {"type": "Feature", "id": 51, "geometry": {"type": "Point", "coordinates": [-77.042391, 38.920472]}, "properties": {"NAME": "Adams Morgan", "LABEL_NAME": "Adams Morgan", "WEB_URL": "http://NeighborhoodAction.dc.gov", "DATELASTMODIFIED": 1049947200000, "GIS_ID": "NbhNamesPt_106", "GLOBALID": "{2D2A7BBC-575B-44D8-86C8-D333E6BB5590}", "CREATED": null, "OBJECTID": 51, "EDITED": null}}, {"type": "Feature", "id": 52, "geometry": {"type": "Point", "coordinates": [-76.963846, 38.919757]}, "properties": {"NAME": "Gateway", "LABEL_NAME": "Gateway", "WEB_URL": "http://NeighborhoodAction.dc.gov", "DATELASTMODIFIED": 1049947200000, "GIS_ID": "NbhNamesPt_68", "GLOBALID": "{BCC312A1-F272-4772-83B9-5794F800E3C8}", "CREATED": null, "OBJECTID": 52, "EDITED": null}}, {"type": "Feature", "id": 53, "geometry": {"type": "Point", "coordinates": [-76.987035, 38.918977]}, "properties": {"NAME": "Brentwood", "LABEL_NAME": "Brentwood", "WEB_URL": "http://NeighborhoodAction.dc.gov", "DATELASTMODIFIED": 1049947200000, "GIS_ID": "NbhNamesPt_70", "GLOBALID": "{83144617-3921-42A9-A3F0-65E680C8BCBB}", "CREATED": null, "OBJECTID": 53, "EDITED": null}}, {"type": "Feature", "id": 54, "geometry": {"type": "Point", "coordinates": [-77.011159, 38.918226]}, "properties": {"NAME": "Bloomingdale", "LABEL_NAME": "Bloomingdale", "WEB_URL": "http://NeighborhoodAction.dc.gov", "DATELASTMODIFIED": 1049947200000, "GIS_ID": "NbhNamesPt_64", "GLOBALID": "{4358EF2C-F96E-4686-BE6A-81C69000A145}", "CREATED": null, "OBJECTID": 54, "EDITED": null}}, {"type": "Feature", "id": 55, "geometry": {"type": "Point", "coordinates": [-77.02755, 38.917168]}, "properties": {"NAME": "Cardozo/Shaw", "LABEL_NAME": "Cardozo/Shaw", "WEB_URL": "http://NeighborhoodAction.dc.gov", "DATELASTMODIFIED": 1049947200000, "GIS_ID": "NbhNamesPt_21", "GLOBALID": "{E2C91DAD-7FB9-4DE7-A4E5-2E0B4949F94D}", "CREATED": null, "OBJECTID": 55, "EDITED": null}}, {"type": "Feature", "id": 56, "geometry": {"type": "Point", "coordinates": [-77.017605, 38.916832]}, "properties": {"NAME": "Le Droit Park", "LABEL_NAME": "Le Droit Park", "WEB_URL": "http://NeighborhoodAction.dc.gov", "DATELASTMODIFIED": 1049947200000, "GIS_ID": "NbhNamesPt_111", "GLOBALID": "{01D05EBA-0A4E-4DF4-BA62-EDECCEA0B71E}", "CREATED": null, "OBJECTID": 56, "EDITED": null}}, {"type": "Feature", "id": 57, "geometry": {"type": "Point", "coordinates": [-77.051195, 38.91566]}, "properties": {"NAME": "Kalorama Heights", "LABEL_NAME": "Kalorama Heights", "WEB_URL": "http://NeighborhoodAction.dc.gov", "DATELASTMODIFIED": 1049947200000, "GIS_ID": "NbhNamesPt_105", "GLOBALID": "{462CF4CE-ABD2-4BBE-9823-3DC4925FF61B}", "CREATED": null, "OBJECTID": 57, "EDITED": null}}, {"type": "Feature", "id": 58, "geometry": {"type": "Point", "coordinates": [-77.000425, 38.915202]}, "properties": {"NAME": "Eckington", "LABEL_NAME": "Eckington", "WEB_URL": "http://NeighborhoodAction.dc.gov", "DATELASTMODIFIED": 1049947200000, "GIS_ID": "NbhNamesPt_71", "GLOBALID": "{7D96FDDF-9039-4EB9-9C48-4879DFCFCDB9}", "CREATED": null, "OBJECTID": 58, "EDITED": null}}, {"type": "Feature", "id": 59, "geometry": {"type": "Point", "coordinates": [-77.074566, 38.915003]}, "properties": {"NAME": "Burleith/Hillandale", "LABEL_NAME": "Burleith/Hillandale", "WEB_URL": "http://NeighborhoodAction.dc.gov", "DATELASTMODIFIED": 1049947200000, "GIS_ID": "NbhNamesPt_86", "GLOBALID": "{620DB044-019F-4831-AD39-48F16EEA55DD}", "CREATED": null, "OBJECTID": 59, "EDITED": null}}, {"type": "Feature", "id": 60, "geometry": {"type": "Point", "coordinates": [-76.97249, 38.91486]}, "properties": {"NAME": "Arboretum", "LABEL_NAME": "Arboretum", "WEB_URL": "http://NeighborhoodAction.dc.gov", "DATELASTMODIFIED": 1049947200000, "GIS_ID": "NbhNamesPt_75", "GLOBALID": "{1886FEE6-B74B-42A8-BD8E-2B4365B4A0B6}", "CREATED": null, "OBJECTID": 60, "EDITED": null}}, {"type": "Feature", "id": 61, "geometry": {"type": "Point", "coordinates": [-77.084407, 38.913247]}, "properties": {"NAME": "Foxhall Village", "LABEL_NAME": "Foxhall Village", "WEB_URL": "http://NeighborhoodAction.dc.gov", "DATELASTMODIFIED": 1049947200000, "GIS_ID": "NbhNamesPt_25", "GLOBALID": "{2A1B22BE-F570-4EBC-8D92-84B380EA1FBD}", "CREATED": null, "OBJECTID": 61, "EDITED": null}}, {"type": "Feature", "id": 62, "geometry": {"type": "Point", "coordinates": [-77.040984, 38.912128]}, "properties": {"NAME": "Dupont Circle", "LABEL_NAME": "Dupont Circle", "WEB_URL": "http://NeighborhoodAction.dc.gov", "DATELASTMODIFIED": 1049947200000, "GIS_ID": "NbhNamesPt_107", "GLOBALID": "{AAE09EB4-C8EC-41FC-8EAC-10641E3CC11F}", "CREATED": null, "OBJECTID": 62, "EDITED": null}}, {"type": "Feature", "id": 63, "geometry": {"type": "Point", "coordinates": [-76.938586, 38.910679]}, "properties": {"NAME": "Kenilworth", "LABEL_NAME": "Kenilworth", "WEB_URL": "http://NeighborhoodAction.dc.gov", "DATELASTMODIFIED": 1049947200000, "GIS_ID": "NbhNamesPt_28", "GLOBALID": "{07DE69D6-3F86-4D1A-B9D9-8B63BE3F913D}", "CREATED": null, "OBJECTID": 63, "EDITED": null}}, {"type": "Feature", "id": 64, "geometry": {"type": "Point", "coordinates": [-76.991627, 38.910389]}, "properties": {"NAME": "Ivy City", "LABEL_NAME": "Ivy City", "WEB_URL": "http://NeighborhoodAction.dc.gov", "DATELASTMODIFIED": 1049947200000, "GIS_ID": "NbhNamesPt_73", "GLOBALID": "{85000313-DDEE-483B-838C-9C8ACD3546EA}", "CREATED": null, "OBJECTID": 64, "EDITED": null}}, {"type": "Feature", "id": 65, "geometry": {"type": "Point", "coordinates": [-77.02534, 38.909816]}, "properties": {"NAME": "Logan Circle/Shaw", "LABEL_NAME": "Logan Circle/Shaw", "WEB_URL": "http://NeighborhoodAction.dc.gov", "DATELASTMODIFIED": 1049947200000, "GIS_ID": "NbhNamesPt_20", "GLOBALID": "{1A138679-A547-4D5D-8E75-31A59A6E6838}", "CREATED": null, "OBJECTID": 65, "EDITED": null}}, {"type": "Feature", "id": 66, "geometry": {"type": "Point", "coordinates": [-77.090677, 38.909637]}, "properties": {"NAME": "Georgetown Reservoir", "LABEL_NAME": "Georgetown Reservoir", "WEB_URL": "http://NeighborhoodAction.dc.gov", "DATELASTMODIFIED": 1049947200000, "GIS_ID": "NbhNamesPt_24", "GLOBALID": "{3A699BF4-2F88-4505-9A30-1FAD37AA4A0C}", "CREATED": null, "OBJECTID": 66, "EDITED": null}}, {"type": "Feature", "id": 67, "geometry": {"type": "Point", "coordinates": [-77.012394, 38.909667]}, "properties": {"NAME": "Truxton Circle", "LABEL_NAME": "Truxton Circle", "WEB_URL": "http://NeighborhoodAction.dc.gov", "DATELASTMODIFIED": 1049947200000, "GIS_ID": "NbhNamesPt_72", "GLOBALID": "{F9195B6B-ECCA-4A2C-BF7D-182306652713}", "CREATED": null, "OBJECTID": 67, "EDITED": null}}, {"type": "Feature", "id": 68, "geometry": {"type": "Point", "coordinates": [-77.064796, 38.909556]}, "properties": {"NAME": "Georgetown", "LABEL_NAME": "Georgetown", "WEB_URL": "http://NeighborhoodAction.dc.gov", "DATELASTMODIFIED": 1049947200000, "GIS_ID": "NbhNamesPt_85", "GLOBALID": "{D73DE5B6-1F93-4BF3-B1D2-7AD313EA7EE9}", "CREATED": null, "OBJECTID": 68, "EDITED": null}}, {"type": "Feature", "id": 69, "geometry": {"type": "Point", "coordinates": [-76.982737, 38.908462]}, "properties": {"NAME": "Trinidad", "LABEL_NAME": "Trinidad", "WEB_URL": "http://NeighborhoodAction.dc.gov", "DATELASTMODIFIED": 1049947200000, "GIS_ID": "NbhNamesPt_74", "GLOBALID": "{EF2FE680-242C-4DE8-84C2-2680651AD3EA}", "CREATED": null, "OBJECTID": 69, "EDITED": null}}, {"type": "Feature", "id": 70, "geometry": {"type": "Point", "coordinates": [-77.051882, 38.90555]}, "properties": {"NAME": "West End", "LABEL_NAME": "West End", "WEB_URL": "http://NeighborhoodAction.dc.gov", "DATELASTMODIFIED": 1049947200000, "GIS_ID": "NbhNamesPt_83", "GLOBALID": "{69837544-7D55-4AAB-93B6-AAA7AA3CBE07}", "CREATED": null, "OBJECTID": 70, "EDITED": null}}, {"type": "Feature", "id": 71, "geometry": {"type": "Point", "coordinates": [-76.94307, 38.905329]}, "properties": {"NAME": "Eastland Gardens", "LABEL_NAME": "Eastland Gardens", "WEB_URL": "http://NeighborhoodAction.dc.gov", "DATELASTMODIFIED": 1049947200000, "GIS_ID": "NbhNamesPt_29", "GLOBALID": "{06F37D02-1931-4180-A8AB-05B43635C214}", "CREATED": null, "OBJECTID": 71, "EDITED": null}}, {"type": "Feature", "id": 72, "geometry": {"type": "Point", "coordinates": [-77.023313, 38.90434]}, "properties": {"NAME": "Mount Vernon Square", "LABEL_NAME": "Mount Vernon Square", "WEB_URL": "http://NeighborhoodAction.dc.gov", "DATELASTMODIFIED": 1049947200000, "GIS_ID": "NbhNamesPt_132", "GLOBALID": "{8240003C-A5EE-464C-BE18-60EA8552579F}", "CREATED": null, "OBJECTID": 72, "EDITED": null}}, {"type": "Feature", "id": 73, "geometry": {"type": "Point", "coordinates": [-76.932801, 38.904107]}, "properties": {"NAME": "Deanwood", "LABEL_NAME": "Deanwood", "WEB_URL": "http://NeighborhoodAction.dc.gov", "DATELASTMODIFIED": 1049947200000, "GIS_ID": "NbhNamesPt_30", "GLOBALID": "{0253E53E-3A83-4615-95D2-F8A3DE3A55A1}", "CREATED": null, "OBJECTID": 73, "EDITED": null}}, {"type": "Feature", "id": 74, "geometry": {"type": "Point", "coordinates": [-77.041134, 38.902952]}, "properties": {"NAME": "Connecticut Avenue/K Street", "LABEL_NAME": "Connecticut Avenue/K Street", "WEB_URL": "http://NeighborhoodAction.dc.gov", "DATELASTMODIFIED": 1049947200000, "GIS_ID": "NbhNamesPt_80", "GLOBALID": "{3FB9D59E-023A-422B-B766-6DEB69E5CE41}", "CREATED": null, "OBJECTID": 74, "EDITED": null}}, {"type": "Feature", "id": 75, "geometry": {"type": "Point", "coordinates": [-77.011275, 38.902532]}, "properties": {"NAME": "North Capitol Street", "LABEL_NAME": "North Capitol Street", "WEB_URL": "http://NeighborhoodAction.dc.gov", "DATELASTMODIFIED": 1049947200000, "GIS_ID": "NbhNamesPt_78", "GLOBALID": "{F21F254A-6CC7-4C5F-8AEC-27CA271AD44E}", "CREATED": null, "OBJECTID": 75, "EDITED": null}}, {"type": "Feature", "id": 76, "geometry": {"type": "Point", "coordinates": [-76.97785, 38.902465]}, "properties": {"NAME": "Carver", "LABEL_NAME": "Carver", "WEB_URL": "http://NeighborhoodAction.dc.gov", "DATELASTMODIFIED": 1049947200000, "GIS_ID": "NbhNamesPt_76", "GLOBALID": "{1B09C0D4-257E-435C-940F-EBBD68D9808F}", "CREATED": null, "OBJECTID": 76, "EDITED": null}}, {"type": "Feature", "id": 77, "geometry": {"type": "Point", "coordinates": [-77.016879, 38.902417]}, "properties": {"NAME": "Mount Vernon Triangle", "LABEL_NAME": "Mount Vernon Triangle", "WEB_URL": "http://NeighborhoodAction.dc.gov", "DATELASTMODIFIED": 1556683200000, "GIS_ID": "NbhNamesPt_77", "GLOBALID": "{29FC5A57-499A-424F-A9FE-892E03446D2F}", "CREATED": null, "OBJECTID": 77, "EDITED": null}}, {"type": "Feature", "id": 78, "geometry": {"type": "Point", "coordinates": [-76.999734, 38.902375]}, "properties": {"NAME": "Near Northeast", "LABEL_NAME": "Near Northeast", "WEB_URL": "http://NeighborhoodAction.dc.gov", "DATELASTMODIFIED": 1049947200000, "GIS_ID": "NbhNamesPt_113", "GLOBALID": "{554B4AE2-731A-46C7-B1AB-0915AEB1597B}", "CREATED": null, "OBJECTID": 78, "EDITED": null}}, {"type": "Feature", "id": 79, "geometry": {"type": "Point", "coordinates": [-76.972367, 38.901336]}, "properties": {"NAME": "Langston", "LABEL_NAME": "Langston", "WEB_URL": "http://NeighborhoodAction.dc.gov", "DATELASTMODIFIED": 1049947200000, "GIS_ID": "NbhNamesPt_43", "GLOBALID": "{A7EFBE69-5A63-4128-8FF1-FC0B9624DFF3}", "CREATED": null, "OBJECTID": 79, "EDITED": null}}, {"type": "Feature", "id": 80, "geometry": {"type": "Point", "coordinates": [-76.951295, 38.901116]}, "properties": {"NAME": "Mayfair", "LABEL_NAME": "Mayfair", "WEB_URL": "http://NeighborhoodAction.dc.gov", "DATELASTMODIFIED": 1049947200000, "GIS_ID": "NbhNamesPt_118", "GLOBALID": "{78FDEA47-D336-4DB9-9E5A-534FEA88CFD4}", "CREATED": null, "OBJECTID": 80, "EDITED": null}}, {"type": "Feature", "id": 81, "geometry": {"type": "Point", "coordinates": [-77.029175, 38.900526]}, "properties": {"NAME": "Downtown", "LABEL_NAME": "Downtown", "WEB_URL": "http://NeighborhoodAction.dc.gov", "DATELASTMODIFIED": 1049947200000, "GIS_ID": "NbhNamesPt_79", "GLOBALID": "{3F61A25C-3521-4021-BBF3-B120F02DE598}", "CREATED": null, "OBJECTID": 81, "EDITED": null}}, {"type": "Feature", "id": 82, "geometry": {"type": "Point", "coordinates": [-76.921802, 38.900243]}, "properties": {"NAME": "Burrville", "LABEL_NAME": "Burrville", "WEB_URL": "http://NeighborhoodAction.dc.gov", "DATELASTMODIFIED": 1049947200000, "GIS_ID": "NbhNamesPt_120", "GLOBALID": "{7A937C25-8501-40C6-B3C5-33E58AA60A8D}", "CREATED": null, "OBJECTID": 82, "EDITED": null}}, {"type": "Feature", "id": 83, "geometry": {"type": "Point", "coordinates": [-77.047928, 38.899628]}, "properties": {"NAME": "George Washington University", "LABEL_NAME": "George Washington University", "WEB_URL": "http://NeighborhoodAction.dc.gov", "DATELASTMODIFIED": 1049947200000, "GIS_ID": "NbhNamesPt_81", "GLOBALID": "{A69A4D26-BB78-4339-A03A-926FC1ECC1E4}", "CREATED": null, "OBJECTID": 83, "EDITED": null}}, {"type": "Feature", "id": 84, "geometry": {"type": "Point", "coordinates": [-77.020135, 38.899151]}, "properties": {"NAME": "Chinatown", "LABEL_NAME": "Chinatown", "WEB_URL": "http://NeighborhoodAction.dc.gov", "DATELASTMODIFIED": 1049947200000, "GIS_ID": "NbhNamesPt_40", "GLOBALID": "{86C78E3F-7D25-43A4-81F7-D73D3B23DB5A}", "CREATED": null, "OBJECTID": 84, "EDITED": null}}, {"type": "Feature", "id": 85, "geometry": {"type": "Point", "coordinates": [-77.052436, 38.899022]}, "properties": {"NAME": "Foggy Bottom", "LABEL_NAME": "Foggy Bottom", "WEB_URL": "http://NeighborhoodAction.dc.gov", "DATELASTMODIFIED": 1049947200000, "GIS_ID": "NbhNamesPt_82", "GLOBALID": "{B509204B-C463-4387-8733-A27CC8927712}", "CREATED": null, "OBJECTID": 85, "EDITED": null}}, {"type": "Feature", "id": 86, "geometry": {"type": "Point", "coordinates": [-76.942277, 38.897035]}, "properties": {"NAME": "Central NE", "LABEL_NAME": "Central NE", "WEB_URL": "http://NeighborhoodAction.dc.gov", "DATELASTMODIFIED": 1049947200000, "GIS_ID": "NbhNamesPt_124", "GLOBALID": "{FAD3D144-F8FF-46AF-840E-F73FFBA4DBEF}", "CREATED": null, "OBJECTID": 86, "EDITED": null}}, {"type": "Feature", "id": 87, "geometry": {"type": "Point", "coordinates": [-76.931097, 38.895805]}, "properties": {"NAME": "Lincoln Heights", "LABEL_NAME": "Lincoln Heights", "WEB_URL": "http://NeighborhoodAction.dc.gov", "DATELASTMODIFIED": 1049947200000, "GIS_ID": "NbhNamesPt_125", "GLOBALID": "{EDC0FA10-E49E-4454-B0AA-F079AF7DE2B4}", "CREATED": null, "OBJECTID": 87, "EDITED": null}}, {"type": "Feature", "id": 88, "geometry": {"type": "Point", "coordinates": [-76.917389, 38.895451]}, "properties": {"NAME": "NE Boundary", "LABEL_NAME": "NE Boundary", "WEB_URL": "http://NeighborhoodAction.dc.gov", "DATELASTMODIFIED": 1049947200000, "GIS_ID": "NbhNamesPt_121", "GLOBALID": "{6B499F23-2C8D-43B9-9D84-EECCC9DBB0C6}", "CREATED": null, "OBJECTID": 88, "EDITED": null}}, {"type": "Feature", "id": 89, "geometry": {"type": "Point", "coordinates": [-77.014234, 38.895428]}, "properties": {"NAME": "Downtown East", "LABEL_NAME": "Downtown East", "WEB_URL": "http://NeighborhoodAction.dc.gov", "DATELASTMODIFIED": 1049947200000, "GIS_ID": "NbhNamesPt_44", "GLOBALID": "{B4A4FA32-AC74-4770-9564-AB7E92D818D0}", "CREATED": null, "OBJECTID": 89, "EDITED": null}}, {"type": "Feature", "id": 90, "geometry": {"type": "Point", "coordinates": [-77.022181, 38.89537]}, "properties": {"NAME": "Penn Quarter", "LABEL_NAME": "Penn Quarter", "WEB_URL": "http://NeighborhoodAction.dc.gov", "DATELASTMODIFIED": 1049947200000, "GIS_ID": "NbhNamesPt_39", "GLOBALID": "{D423E25A-D9FE-4A76-9A87-385ACA570E7F}", "CREATED": null, "OBJECTID": 90, "EDITED": null}}, {"type": "Feature", "id": 91, "geometry": {"type": "Point", "coordinates": [-76.994242, 38.894898]}, "properties": {"NAME": "Stanton Park", "LABEL_NAME": "Stanton Park", "WEB_URL": "http://NeighborhoodAction.dc.gov", "DATELASTMODIFIED": 1049947200000, "GIS_ID": "NbhNamesPt_114", "GLOBALID": "{E26632D4-5717-4E19-ACB9-90807E13703F}", "CREATED": null, "OBJECTID": 91, "EDITED": null}}, {"type": "Feature", "id": 92, "geometry": {"type": "Point", "coordinates": [-76.978437, 38.894887]}, "properties": {"NAME": "Kingman Park", "LABEL_NAME": "Kingman Park", "WEB_URL": "http://NeighborhoodAction.dc.gov", "DATELASTMODIFIED": 1049947200000, "GIS_ID": "NbhNamesPt_115", "GLOBALID": "{DC3C8CFF-615F-482E-A261-A92D46447404}", "CREATED": null, "OBJECTID": 92, "EDITED": null}}, {"type": "Feature", "id": 93, "geometry": {"type": "Point", "coordinates": [-76.957681, 38.893705]}, "properties": {"NAME": "River Terrace", "LABEL_NAME": "River Terrace", "WEB_URL": "http://NeighborhoodAction.dc.gov", "DATELASTMODIFIED": 1049947200000, "GIS_ID": "NbhNamesPt_119", "GLOBALID": "{6D030DE7-551D-4B96-9CD6-944EF8EC1A21}", "CREATED": null, "OBJECTID": 93, "EDITED": null}}, {"type": "Feature", "id": 94, "geometry": {"type": "Point", "coordinates": [-76.920638, 38.892706]}, "properties": {"NAME": "Grant Park", "LABEL_NAME": "Grant Park", "WEB_URL": "http://NeighborhoodAction.dc.gov", "DATELASTMODIFIED": 1049947200000, "GIS_ID": "NbhNamesPt_123", "GLOBALID": "{7563F526-CF47-42F7-A71C-17CC44F0877E}", "CREATED": null, "OBJECTID": 94, "EDITED": null}}, {"type": "Feature", "id": 95, "geometry": {"type": "Point", "coordinates": [-76.948884, 38.891885]}, "properties": {"NAME": "Benning", "LABEL_NAME": "Benning", "WEB_URL": "http://NeighborhoodAction.dc.gov", "DATELASTMODIFIED": 1049947200000, "GIS_ID": "NbhNamesPt_122", "GLOBALID": "{5F6A5904-9323-43FD-A225-EA2B4450BD11}", "CREATED": null, "OBJECTID": 95, "EDITED": null}}, {"type": "Feature", "id": 96, "geometry": {"type": "Point", "coordinates": [-76.927086, 38.889978]}, "properties": {"NAME": "Capitol View", "LABEL_NAME": "Capitol View", "WEB_URL": "http://NeighborhoodAction.dc.gov", "DATELASTMODIFIED": 1049947200000, "GIS_ID": "NbhNamesPt_126", "GLOBALID": "{9D9502B0-75B1-4D4A-9855-15B1E280D2F9}", "CREATED": null, "OBJECTID": 96, "EDITED": null}}, {"type": "Feature", "id": 97, "geometry": {"type": "Point", "coordinates": [-76.98971, 38.887211]}, "properties": {"NAME": "Lincoln Park", "LABEL_NAME": "Lincoln Park", "WEB_URL": "http://NeighborhoodAction.dc.gov", "DATELASTMODIFIED": 1049947200000, "GIS_ID": "NbhNamesPt_65", "GLOBALID": "{F93D15FC-C066-433B-8D59-77CA93F2E09F}", "CREATED": null, "OBJECTID": 97, "EDITED": null}}, {"type": "Feature", "id": 98, "geometry": {"type": "Point", "coordinates": [-76.950685, 38.886017]}, "properties": {"NAME": "Fort Dupont", "LABEL_NAME": "Fort Dupont", "WEB_URL": "http://NeighborhoodAction.dc.gov", "DATELASTMODIFIED": 1049947200000, "GIS_ID": "NbhNamesPt_31", "GLOBALID": "{C12FAEBD-DE04-4664-8D7C-A742F1B2E46B}", "CREATED": null, "OBJECTID": 98, "EDITED": null}}, {"type": "Feature", "id": 99, "geometry": {"type": "Point", "coordinates": [-77.020317, 38.885017]}, "properties": {"NAME": "Southwest Employment Area", "LABEL_NAME": "Southwest Employment Area", "WEB_URL": "http://NeighborhoodAction.dc.gov", "DATELASTMODIFIED": 1049947200000, "GIS_ID": "NbhNamesPt_87", "GLOBALID": "{E0035859-7CFF-4629-BCD9-6E046CC86A3A}", "CREATED": null, "OBJECTID": 99, "EDITED": null}}, {"type": "Feature", "id": 100, "geometry": {"type": "Point", "coordinates": [-76.960181, 38.884788]}, "properties": {"NAME": "Greenway", "LABEL_NAME": "Greenway", "WEB_URL": "http://NeighborhoodAction.dc.gov", "DATELASTMODIFIED": 1049947200000, "GIS_ID": "NbhNamesPt_32", "GLOBALID": "{10709EA7-D367-47F1-8969-1A5064AC73F9}", "CREATED": null, "OBJECTID": 100, "EDITED": null}}, {"type": "Feature", "id": 101, "geometry": {"type": "Point", "coordinates": [-77.037334, 38.884463]}, "properties": {"NAME": "Monumental Core", "LABEL_NAME": "Monumental Core", "WEB_URL": "http://NeighborhoodAction.dc.gov", "DATELASTMODIFIED": 1049947200000, "GIS_ID": "NbhNamesPt_84", "GLOBALID": "{E0C76B0A-B581-4270-9348-F384AF21CA1C}", "CREATED": null, "OBJECTID": 101, "EDITED": null}}, {"type": "Feature", "id": 102, "geometry": {"type": "Point", "coordinates": [-76.929122, 38.884372]}, "properties": {"NAME": "Marshall Heights", "LABEL_NAME": "Marshall Heights", "WEB_URL": "http://NeighborhoodAction.dc.gov", "DATELASTMODIFIED": 1049947200000, "GIS_ID": "NbhNamesPt_127", "GLOBALID": "{CB100B38-4A9C-46B6-AEAE-62CDC49DAA91}", "CREATED": null, "OBJECTID": 102, "EDITED": null}}, {"type": "Feature", "id": 103, "geometry": {"type": "Point", "coordinates": [-76.998477, 38.883621]}, "properties": {"NAME": "Capitol Hill", "LABEL_NAME": "Capitol Hill", "WEB_URL": "http://NeighborhoodAction.dc.gov", "DATELASTMODIFIED": 1049947200000, "GIS_ID": "NbhNamesPt_11", "GLOBALID": "{1A69E410-008E-4DCB-B24A-0BB901699871}", "CREATED": null, "OBJECTID": 103, "EDITED": null}}, {"type": "Feature", "id": 104, "geometry": {"type": "Point", "coordinates": [-76.979951, 38.88333]}, "properties": {"NAME": "Hill East", "LABEL_NAME": "Hill East", "WEB_URL": "http://NeighborhoodAction.dc.gov", "DATELASTMODIFIED": 1049947200000, "GIS_ID": "NbhNamesPt_116", "GLOBALID": "{EAD8ABF4-B221-4418-A277-88FF3991C009}", "CREATED": null, "OBJECTID": 104, "EDITED": null}}, {"type": "Feature", "id": 105, "geometry": {"type": "Point", "coordinates": [-76.938203, 38.881162]}, "properties": {"NAME": "Benning Ridge", "LABEL_NAME": "Benning Ridge", "WEB_URL": "http://NeighborhoodAction.dc.gov", "DATELASTMODIFIED": 1049947200000, "GIS_ID": "NbhNamesPt_38", "GLOBALID": "{191D4BF9-BCA7-4C63-8DDC-78F2FFA6439E}", "CREATED": null, "OBJECTID": 105, "EDITED": null}}, {"type": "Feature", "id": 106, "geometry": {"type": "Point", "coordinates": [-77.000627, 38.878384]}, "properties": {"NAME": "Near Southeast", "LABEL_NAME": "Near Southeast", "WEB_URL": "http://NeighborhoodAction.dc.gov", "DATELASTMODIFIED": 1049947200000, "GIS_ID": "NbhNamesPt_10", "GLOBALID": "{3DC9BBD0-C850-49EF-BD2C-1BA557682FBC}", "CREATED": null, "OBJECTID": 106, "EDITED": null}}, {"type": "Feature", "id": 107, "geometry": {"type": "Point", "coordinates": [-77.016903, 38.877908]}, "properties": {"NAME": "Southwest/Waterfront", "LABEL_NAME": "Southwest/Waterfront", "WEB_URL": "http://NeighborhoodAction.dc.gov", "DATELASTMODIFIED": 1049947200000, "GIS_ID": "NbhNamesPt_88", "GLOBALID": "{06A15C1E-CF38-447D-A7C7-D211B88EEE1F}", "CREATED": null, "OBJECTID": 107, "EDITED": null}}, {"type": "Feature", "id": 108, "geometry": {"type": "Point", "coordinates": [-76.960847, 38.875588]}, "properties": {"NAME": "Twining", "LABEL_NAME": "Twining", "WEB_URL": "http://NeighborhoodAction.dc.gov", "DATELASTMODIFIED": 1049947200000, "GIS_ID": "NbhNamesPt_13", "GLOBALID": "{21B0B399-14E3-43A8-905B-7BE2CBBD088F}", "CREATED": null, "OBJECTID": 108, "EDITED": null}}, {"type": "Feature", "id": 109, "geometry": {"type": "Point", "coordinates": [-76.998462, 38.874268]}, "properties": {"NAME": "Navy Yard", "LABEL_NAME": "Navy Yard", "WEB_URL": "http://NeighborhoodAction.dc.gov", "DATELASTMODIFIED": 1049947200000, "GIS_ID": "NbhNamesPt_117", "GLOBALID": "{CF23BDBD-5F78-408B-87A2-1D25A22846A2}", "CREATED": null, "OBJECTID": 109, "EDITED": null}}, {"type": "Feature", "id": 110, "geometry": {"type": "Point", "coordinates": [-76.962818, 38.87263]}, "properties": {"NAME": "Dupont Park", "LABEL_NAME": "Dupont Park", "WEB_URL": "http://NeighborhoodAction.dc.gov", "DATELASTMODIFIED": 1049947200000, "GIS_ID": "NbhNamesPt_12", "GLOBALID": "{A9D5629F-BC76-4EBE-B33B-A022527649E3}", "CREATED": null, "OBJECTID": 110, "EDITED": null}}, {"type": "Feature", "id": 111, "geometry": {"type": "Point", "coordinates": [-76.953424, 38.86956]}, "properties": {"NAME": "Penn Branch", "LABEL_NAME": "Penn Branch", "WEB_URL": "http://NeighborhoodAction.dc.gov", "DATELASTMODIFIED": 1049947200000, "GIS_ID": "NbhNamesPt_16", "GLOBALID": "{5FC50944-07D1-4EBB-8ACA-4436E63D30C9}", "CREATED": null, "OBJECTID": 111, "EDITED": null}}, {"type": "Feature", "id": 112, "geometry": {"type": "Point", "coordinates": [-76.965804, 38.869336]}, "properties": {"NAME": "Randle Highlands", "LABEL_NAME": "Randle Highlands", "WEB_URL": "http://NeighborhoodAction.dc.gov", "DATELASTMODIFIED": 1049947200000, "GIS_ID": "NbhNamesPt_14", "GLOBALID": "{863873A5-68CB-4B41-866E-36A9C773C1A9}", "CREATED": null, "OBJECTID": 112, "EDITED": null}}, {"type": "Feature", "id": 113, "geometry": {"type": "Point", "coordinates": [-76.977452, 38.869158]}, "properties": {"NAME": "Fairlawn", "LABEL_NAME": "Fairlawn", "WEB_URL": "http://NeighborhoodAction.dc.gov", "DATELASTMODIFIED": 1049947200000, "GIS_ID": "NbhNamesPt_15", "GLOBALID": "{29EC3B6D-864A-4FFD-A6E4-CDD57C5BFBEE}", "CREATED": null, "OBJECTID": 113, "EDITED": null}}, {"type": "Feature", "id": 114, "geometry": {"type": "Point", "coordinates": [-76.94467, 38.868901]}, "properties": {"NAME": "Fort Davis Park", "LABEL_NAME": "Fort Davis Park", "WEB_URL": "http://NeighborhoodAction.dc.gov", "DATELASTMODIFIED": 1049947200000, "GIS_ID": "NbhNamesPt_128", "GLOBALID": "{4FE18591-F829-4010-A30B-AB7955BB63BC}", "CREATED": null, "OBJECTID": 114, "EDITED": null}}, {"type": "Feature", "id": 115, "geometry": {"type": "Point", "coordinates": [-77.011425, 38.8683]}, "properties": {"NAME": "Buzzard Point", "LABEL_NAME": "Buzzard Point", "WEB_URL": "http://NeighborhoodAction.dc.gov", "DATELASTMODIFIED": 1049947200000, "GIS_ID": "NbhNamesPt_89", "GLOBALID": "{D3D14DCC-AF49-4DF5-B616-B5A0CD1BCC4D}", "CREATED": null, "OBJECTID": 115, "EDITED": null}}, {"type": "Feature", "id": 116, "geometry": {"type": "Point", "coordinates": [-77.016438, 38.866943]}, "properties": {"NAME": "Fort McNair", "LABEL_NAME": "Fort McNair", "WEB_URL": "http://NeighborhoodAction.dc.gov", "DATELASTMODIFIED": 1049947200000, "GIS_ID": "NbhNamesPt_90", "GLOBALID": "{264581D1-8AA1-4A43-B5FB-3430C2043C00}", "CREATED": null, "OBJECTID": 116, "EDITED": null}}, {"type": "Feature", "id": 117, "geometry": {"type": "Point", "coordinates": [-76.95163, 38.863453]}, "properties": {"NAME": "Fairfax Village", "LABEL_NAME": "Fairfax Village", "WEB_URL": "http://NeighborhoodAction.dc.gov", "DATELASTMODIFIED": 1049947200000, "GIS_ID": "NbhNamesPt_129", "GLOBALID": "{8C9E51A2-2C96-45CC-96E9-59706EF2E2A3}", "CREATED": null, "OBJECTID": 117, "EDITED": null}}, {"type": "Feature", "id": 118, "geometry": {"type": "Point", "coordinates": [-76.984678, 38.863186]}, "properties": {"NAME": "Historic Anacostia", "LABEL_NAME": "Historic Anacostia", "WEB_URL": "http://NeighborhoodAction.dc.gov", "DATELASTMODIFIED": 1049947200000, "GIS_ID": "NbhNamesPt_18", "GLOBALID": "{8BF2509C-0036-48D0-BBE3-417EB8213EE2}", "CREATED": null, "OBJECTID": 118, "EDITED": null}}, {"type": "Feature", "id": 119, "geometry": {"type": "Point", "coordinates": [-76.960688, 38.861794]}, "properties": {"NAME": "Hillcrest", "LABEL_NAME": "Hillcrest", "WEB_URL": "http://NeighborhoodAction.dc.gov", "DATELASTMODIFIED": 1049947200000, "GIS_ID": "NbhNamesPt_130", "GLOBALID": "{677439AA-EFF2-40C8-8DFE-388141B22BA8}", "CREATED": null, "OBJECTID": 119, "EDITED": null}}, {"type": "Feature", "id": 120, "geometry": {"type": "Point", "coordinates": [-76.971703, 38.860267]}, "properties": {"NAME": "Skyland", "LABEL_NAME": "Skyland", "WEB_URL": "http://NeighborhoodAction.dc.gov", "DATELASTMODIFIED": 1049947200000, "GIS_ID": "NbhNamesPt_63", "GLOBALID": "{AAA4C297-46E4-4B6A-96EB-C49A293C2430}", "CREATED": null, "OBJECTID": 120, "EDITED": null}}, {"type": "Feature", "id": 121, "geometry": {"type": "Point", "coordinates": [-76.997281, 38.859255]}, "properties": {"NAME": "Barry Farm", "LABEL_NAME": "Barry Farm", "WEB_URL": "http://NeighborhoodAction.dc.gov", "DATELASTMODIFIED": 1049947200000, "GIS_ID": "NbhNamesPt_17", "GLOBALID": "{41D09CD7-5342-440F-BBF2-9DA5980C7300}", "CREATED": null, "OBJECTID": 121, "EDITED": null}}, {"type": "Feature", "id": 122, "geometry": {"type": "Point", "coordinates": [-76.990561, 38.858423]}, "properties": {"NAME": "Hillsdale", "LABEL_NAME": "Hillsdale", "WEB_URL": "http://NeighborhoodAction.dc.gov", "DATELASTMODIFIED": 1049947200000, "GIS_ID": "NbhNamesPt_37", "GLOBALID": "{B0FE57A2-93BB-4942-BD85-E7136BE21137}", "CREATED": null, "OBJECTID": 122, "EDITED": null}}, {"type": "Feature", "id": 123, "geometry": {"type": "Point", "coordinates": [-76.963046, 38.856724]}, "properties": {"NAME": "Naylor Gardens", "LABEL_NAME": "Naylor Gardens", "WEB_URL": "http://NeighborhoodAction.dc.gov", "DATELASTMODIFIED": 1049947200000, "GIS_ID": "NbhNamesPt_35", "GLOBALID": "{29E6FA1E-9955-4CAC-92D4-9CC9B209530B}", "CREATED": null, "OBJECTID": 123, "EDITED": null}}, {"type": "Feature", "id": 124, "geometry": {"type": "Point", "coordinates": [-76.973926, 38.856554]}, "properties": {"NAME": "Woodland", "LABEL_NAME": "Woodland", "WEB_URL": "http://NeighborhoodAction.dc.gov", "DATELASTMODIFIED": 1049947200000, "GIS_ID": "NbhNamesPt_8", "GLOBALID": "{4599B362-A0B3-4B74-BEC5-5E41285D91B5}", "CREATED": null, "OBJECTID": 124, "EDITED": null}}, {"type": "Feature", "id": 125, "geometry": {"type": "Point", "coordinates": [-76.980348, 38.855658]}, "properties": {"NAME": "Fort Stanton", "LABEL_NAME": "Fort Stanton", "WEB_URL": "http://NeighborhoodAction.dc.gov", "DATELASTMODIFIED": 1049947200000, "GIS_ID": "NbhNamesPt_1", "GLOBALID": "{259214DE-5F8F-4E61-8A68-E98CB725F6FD}", "CREATED": null, "OBJECTID": 125, "EDITED": null}}, {"type": "Feature", "id": 126, "geometry": {"type": "Point", "coordinates": [-76.972213, 38.854085]}, "properties": {"NAME": "Garfield Heights", "LABEL_NAME": "Garfield Heights", "WEB_URL": "http://NeighborhoodAction.dc.gov", "DATELASTMODIFIED": 1049947200000, "GIS_ID": "NbhNamesPt_9", "GLOBALID": "{3BDDDEC9-27D3-4ED3-8709-8978560D4D9A}", "CREATED": null, "OBJECTID": 126, "EDITED": null}}, {"type": "Feature", "id": 127, "geometry": {"type": "Point", "coordinates": [-76.96766, 38.853688]}, "properties": {"NAME": "Knox Hill/Buena Vista", "LABEL_NAME": "Knox Hill/Buena Vista", "WEB_URL": "http://NeighborhoodAction.dc.gov", "DATELASTMODIFIED": 1049947200000, "GIS_ID": "NbhNamesPt_5", "GLOBALID": "{B79E42F2-A528-47DB-9176-2B822609C7EC}", "CREATED": null, "OBJECTID": 127, "EDITED": null}}, {"type": "Feature", "id": 128, "geometry": {"type": "Point", "coordinates": [-76.979645, 38.847571]}, "properties": {"NAME": "Douglass", "LABEL_NAME": "Douglass", "WEB_URL": "http://NeighborhoodAction.dc.gov", "DATELASTMODIFIED": 1049947200000, "GIS_ID": "NbhNamesPt_7", "GLOBALID": "{B8F62990-9A83-4CDC-AD71-A961053F6443}", "CREATED": null, "OBJECTID": 128, "EDITED": null}}, {"type": "Feature", "id": 129, "geometry": {"type": "Point", "coordinates": [-76.972902, 38.84686]}, "properties": {"NAME": "Shipley", "LABEL_NAME": "Shipley", "WEB_URL": "http://NeighborhoodAction.dc.gov", "DATELASTMODIFIED": 1049947200000, "GIS_ID": "NbhNamesPt_6", "GLOBALID": "{6A62D7B4-D786-4052-A76E-61CB6F089069}", "CREATED": null, "OBJECTID": 129, "EDITED": null}}, {"type": "Feature", "id": 130, "geometry": {"type": "Point", "coordinates": [-76.99795, 38.841077]}, "properties": {"NAME": "Congress Heights", "LABEL_NAME": "Congress Heights", "WEB_URL": "http://NeighborhoodAction.dc.gov", "DATELASTMODIFIED": 1049947200000, "GIS_ID": "NbhNamesPt_2", "GLOBALID": "{96222C34-CE70-41CF-8AD9-C168015C5043}", "CREATED": null, "OBJECTID": 130, "EDITED": null}}, {"type": "Feature", "id": 131, "geometry": {"type": "Point", "coordinates": [-76.995636, 38.830237]}, "properties": {"NAME": "Washington Highlands", "LABEL_NAME": "Washington Highlands", "WEB_URL": "http://NeighborhoodAction.dc.gov", "DATELASTMODIFIED": 1049947200000, "GIS_ID": "NbhNamesPt_3", "GLOBALID": "{4694BB68-9515-4B1B-ACE7-974BD72D2EEE}", "CREATED": null, "OBJECTID": 131, "EDITED": null}}, {"type": "Feature", "id": 132, "geometry": {"type": "Point", "coordinates": [-77.009271, 38.826952]}, "properties": {"NAME": "Bellevue", "LABEL_NAME": "Bellevue", "WEB_URL": "http://NeighborhoodAction.dc.gov", "DATELASTMODIFIED": 1049947200000, "GIS_ID": "NbhNamesPt_4", "GLOBALID": "{1CAEF400-1C36-4CB7-B332-0DC9238B71B1}", "CREATED": null, "OBJECTID": 132, "EDITED": null}}]}